*******************************************************************************
Ephemeris / WWW_USER Mon Mar 10 14:49:15 2025 Pasadena, USA      / Horizons    
*******************************************************************************
Target body name: (2017 SN16)                     {source: JPL#20}
Center body name: Earth (399)                     {source: DE441}
Center-site name: Gemini South Obs., Cerro Pachon
*******************************************************************************
Start time      : A.D. 2018-Aug-27 22:33:00.0000 UT      
Stop  time      : A.D. 2018-Aug-28 10:54:00.0000 UT      
Step-size       : 1 minutes
*******************************************************************************
Target pole/equ : undefined
Target radii    : undefined                                                    
Center geodetic : 289.2634, -30.2406227, 2.71233  {E-lon(deg),Lat(deg),Alt(km)}
Center cylindric: 289.2634,5517.21435,-3194.81213 {E-lon(deg),Dxy(km),Dz(km)}
Center pole/equ : ITRF93                          {East-longitude positive}
Center radii    : 6378.137, 6378.137, 6356.752 km {Equator_a, b, pole_c}       
Target primary  : Sun
Vis. interferer : MOON (R_eq= 1737.400) km        {source: DE441}
Rel. light bend : Sun                             {source: DE441}
Rel. lght bnd GM: 1.3271E+11 km^3/s^2                                          
Small-body perts: Yes                             {source: SB441-N16}
Atmos refraction: NO (AIRLESS)
RA format       : HMS
Time format     : CAL 
Calendar mode   : Mixed Julian/Gregorian
RTS-only print  : NO       
EOP file        : eop.250307.p250603                                           
EOP coverage    : DATA-BASED 1962-JAN-20 TO 2025-MAR-07. PREDICTS-> 2025-JUN-02
Units conversion: 1 au= 149597870.700 km, c= 299792.458 km/s, 1 day= 86400.0 s 
Table cut-offs 1: Elevation (-90.0deg=NO ),Airmass (>38.000=NO), Daylight (YES)
Table cut-offs 2: Solar elongation (  0.0,180.0=NO ),Local Hour Angle( 0.0=NO )
Table cut-offs 3: RA/DEC angular rate (     0.0=NO )                           
*******************************************************************************
Initial IAU76/J2000 heliocentric ecliptic osculating elements (au, days, deg.):
  EPOCH=  2458305.5 ! 2018-Jul-06.00 (TDB)         Residual RMS= .23751        
   EC= .1454884975659386   QR= .8682464985612274   TP= 2458145.5722438502      
   OM= 2.759719470837934   W=  137.1017088998531   IN= 13.38264682844635       
  Equivalent ICRF heliocentric cartesian coordinates (au, au/d):
   X= 5.756755401261899E-01  Y=-7.953424559592890E-01  Z=-6.031561894536019E-01
  VX= 1.332076113263395E-02 VY= 5.454663564585547E-03 VZ= 3.896229736425836E-03
Asteroid physical parameters (km, seconds, rotational period in hours):        
   GM= n.a.                RAD= n.a.               ROTPER= n.a.                
   H= 23.34                G= .150                 B-V= n.a.                   
                           ALBEDO= n.a.            STYP= n.a.                  
*******************************************************************************
 Date__(UT)__HR:MN     R.A._________(ICRF)_________DEC
******************************************************
$$SOE
 2018-Aug-28 04:42  m  01 34 40.306189 -26 01 45.65862
 2018-Aug-28 04:43  m  01 34 40.212783 -26 01 45.30420
 2018-Aug-28 04:44  m  01 34 40.119331 -26 01 44.94954
 2018-Aug-28 04:45  m  01 34 40.025833 -26 01 44.59464
 2018-Aug-28 04:46  m  01 34 39.932290 -26 01 44.23949
 2018-Aug-28 04:47  m  01 34 39.838703 -26 01 43.88411
 2018-Aug-28 04:48  m  01 34 39.745070 -26 01 43.52849
 2018-Aug-28 04:49  m  01 34 39.651393 -26 01 43.17262
 2018-Aug-28 04:50  m  01 34 39.557672 -26 01 42.81651
 2018-Aug-28 04:51  m  01 34 39.463906 -26 01 42.46015
 2018-Aug-28 04:52  m  01 34 39.370096 -26 01 42.10355
 2018-Aug-28 04:53  m  01 34 39.276242 -26 01 41.74669
 2018-Aug-28 04:54  m  01 34 39.182344 -26 01 41.38960
 2018-Aug-28 04:55  m  01 34 39.088402 -26 01 41.03225
 2018-Aug-28 04:56  m  01 34 38.994417 -26 01 40.67465
 2018-Aug-28 04:57  m  01 34 38.900389 -26 01 40.31680
 2018-Aug-28 04:58  m  01 34 38.806317 -26 01 39.95870
 2018-Aug-28 04:59  m  01 34 38.712203 -26 01 39.60034
 2018-Aug-28 05:00  m  01 34 38.618045 -26 01 39.24173
 2018-Aug-28 05:01  m  01 34 38.523846 -26 01 38.88287
 2018-Aug-28 05:02  m  01 34 38.429603 -26 01 38.52375
 2018-Aug-28 05:03  m  01 34 38.335319 -26 01 38.16437
 2018-Aug-28 05:04  m  01 34 38.240992 -26 01 37.80473
 2018-Aug-28 05:05  m  01 34 38.146623 -26 01 37.44484
 2018-Aug-28 05:06  m  01 34 38.052213 -26 01 37.08468
 2018-Aug-28 05:07  m  01 34 37.957761 -26 01 36.72427
 2018-Aug-28 05:08  m  01 34 37.863267 -26 01 36.36359
 2018-Aug-28 05:09  m  01 34 37.768732 -26 01 36.00265
 2018-Aug-28 05:10  m  01 34 37.674157 -26 01 35.64144
 2018-Aug-28 05:11  m  01 34 37.579540 -26 01 35.27997
 2018-Aug-28 05:12  m  01 34 37.484883 -26 01 34.91823
 2018-Aug-28 05:13  m  01 34 37.390185 -26 01 34.55623
 2018-Aug-28 05:14  m  01 34 37.295447 -26 01 34.19396
 2018-Aug-28 05:15  m  01 34 37.200669 -26 01 33.83142
 2018-Aug-28 05:16  m  01 34 37.105851 -26 01 33.46862
 2018-Aug-28 05:17  m  01 34 37.010993 -26 01 33.10554
 2018-Aug-28 05:18  m  01 34 36.916095 -26 01 32.74219
 2018-Aug-28 05:19  m  01 34 36.821158 -26 01 32.37857
 2018-Aug-28 05:20  m  01 34 36.726182 -26 01 32.01467
 2018-Aug-28 05:21  m  01 34 36.631167 -26 01 31.65050
 2018-Aug-28 05:22  m  01 34 36.536113 -26 01 31.28606
 2018-Aug-28 05:23  m  01 34 36.441020 -26 01 30.92134
 2018-Aug-28 05:24  m  01 34 36.345889 -26 01 30.55634
 2018-Aug-28 05:25  m  01 34 36.250720 -26 01 30.19107
 2018-Aug-28 05:26  m  01 34 36.155513 -26 01 29.82552
 2018-Aug-28 05:27  m  01 34 36.060267 -26 01 29.45969
 2018-Aug-28 05:28  m  01 34 35.964984 -26 01 29.09358
 2018-Aug-28 05:29  m  01 34 35.869664 -26 01 28.72719
 2018-Aug-28 05:30  m  01 34 35.774306 -26 01 28.36051
 2018-Aug-28 05:31  m  01 34 35.678911 -26 01 27.99356
 2018-Aug-28 05:32  m  01 34 35.583479 -26 01 27.62632
 2018-Aug-28 05:33  m  01 34 35.488010 -26 01 27.25880
 2018-Aug-28 05:34  m  01 34 35.392505 -26 01 26.89099
 2018-Aug-28 05:35  m  01 34 35.296964 -26 01 26.52289
 2018-Aug-28 05:36  m  01 34 35.201386 -26 01 26.15451
 2018-Aug-28 05:37  m  01 34 35.105772 -26 01 25.78584
 2018-Aug-28 05:38  m  01 34 35.010123 -26 01 25.41689
 2018-Aug-28 05:39  m  01 34 34.914438 -26 01 25.04764
 2018-Aug-28 05:40  m  01 34 34.818718 -26 01 24.67810
 2018-Aug-28 05:41  m  01 34 34.722962 -26 01 24.30828
 2018-Aug-28 05:42  m  01 34 34.627172 -26 01 23.93816
 2018-Aug-28 05:43  m  01 34 34.531347 -26 01 23.56775
 2018-Aug-28 05:44  m  01 34 34.435487 -26 01 23.19704
 2018-Aug-28 05:45  m  01 34 34.339593 -26 01 22.82605
 2018-Aug-28 05:46  m  01 34 34.243665 -26 01 22.45475
 2018-Aug-28 05:47  m  01 34 34.147703 -26 01 22.08317
 2018-Aug-28 05:48  m  01 34 34.051707 -26 01 21.71128
 2018-Aug-28 05:49  m  01 34 33.955678 -26 01 21.33910
 2018-Aug-28 05:50  m  01 34 33.859615 -26 01 20.96662
 2018-Aug-28 05:51  m  01 34 33.763519 -26 01 20.59385
 2018-Aug-28 05:52  m  01 34 33.667390 -26 01 20.22077
 2018-Aug-28 05:53  m  01 34 33.571229 -26 01 19.84740
 2018-Aug-28 05:54  m  01 34 33.475035 -26 01 19.47372
 2018-Aug-28 05:55  m  01 34 33.378809 -26 01 19.09975
 2018-Aug-28 05:56  m  01 34 33.282550 -26 01 18.72547
 2018-Aug-28 05:57  m  01 34 33.186260 -26 01 18.35088
 2018-Aug-28 05:58  m  01 34 33.089938 -26 01 17.97600
 2018-Aug-28 05:59  m  01 34 32.993585 -26 01 17.60081
 2018-Aug-28 06:00  m  01 34 32.897200 -26 01 17.22532
 2018-Aug-28 06:01  m  01 34 32.800784 -26 01 16.84952
 2018-Aug-28 06:02  m  01 34 32.704338 -26 01 16.47341
 2018-Aug-28 06:03  m  01 34 32.607861 -26 01 16.09700
 2018-Aug-28 06:04  m  01 34 32.511353 -26 01 15.72028
 2018-Aug-28 06:05  m  01 34 32.414815 -26 01 15.34325
 2018-Aug-28 06:06  m  01 34 32.318247 -26 01 14.96592
 2018-Aug-28 06:07  m  01 34 32.221650 -26 01 14.58827
 2018-Aug-28 06:08  m  01 34 32.125023 -26 01 14.21032
 2018-Aug-28 06:09  m  01 34 32.028366 -26 01 13.83205
 2018-Aug-28 06:10  m  01 34 31.931681 -26 01 13.45347
 2018-Aug-28 06:11  m  01 34 31.834966 -26 01 13.07458
 2018-Aug-28 06:12  m  01 34 31.738223 -26 01 12.69538
 2018-Aug-28 06:13  m  01 34 31.641452 -26 01 12.31586
 2018-Aug-28 06:14  m  01 34 31.544652 -26 01 11.93603
 2018-Aug-28 06:15  m  01 34 31.447824 -26 01 11.55589
 2018-Aug-28 06:16  m  01 34 31.350968 -26 01 11.17543
 2018-Aug-28 06:17  m  01 34 31.254084 -26 01 10.79465
 2018-Aug-28 06:18  m  01 34 31.157174 -26 01 10.41356
 2018-Aug-28 06:19  m  01 34 31.060236 -26 01 10.03216
 2018-Aug-28 06:20  m  01 34 30.963271 -26 01 09.65043
 2018-Aug-28 06:21  m  01 34 30.866279 -26 01 09.26839
 2018-Aug-28 06:22  m  01 34 30.769261 -26 01 08.88603
 2018-Aug-28 06:23  m  01 34 30.672216 -26 01 08.50334
 2018-Aug-28 06:24  m  01 34 30.575146 -26 01 08.12034
 2018-Aug-28 06:25  m  01 34 30.478050 -26 01 07.73702
 2018-Aug-28 06:26  m  01 34 30.380927 -26 01 07.35338
 2018-Aug-28 06:27  m  01 34 30.283780 -26 01 06.96942
 2018-Aug-28 06:28  m  01 34 30.186607 -26 01 06.58513
 2018-Aug-28 06:29  m  01 34 30.089410 -26 01 06.20053
 2018-Aug-28 06:30  m  01 34 29.992188 -26 01 05.81560
 2018-Aug-28 06:31  m  01 34 29.894941 -26 01 05.43034
 2018-Aug-28 06:32  m  01 34 29.797670 -26 01 05.04477
 2018-Aug-28 06:33  m  01 34 29.700375 -26 01 04.65887
 2018-Aug-28 06:34  m  01 34 29.603056 -26 01 04.27264
 2018-Aug-28 06:35  m  01 34 29.505713 -26 01 03.88609
 2018-Aug-28 06:36  m  01 34 29.408347 -26 01 03.49921
 2018-Aug-28 06:37  m  01 34 29.310958 -26 01 03.11200
 2018-Aug-28 06:38  m  01 34 29.213546 -26 01 02.72447
 2018-Aug-28 06:39  m  01 34 29.116111 -26 01 02.33662
 2018-Aug-28 06:40  m  01 34 29.018654 -26 01 01.94843
 2018-Aug-28 06:41  m  01 34 28.921174 -26 01 01.55991
 2018-Aug-28 06:42  m  01 34 28.823672 -26 01 01.17107
 2018-Aug-28 06:43  m  01 34 28.726149 -26 01 00.78190
 2018-Aug-28 06:44  m  01 34 28.628604 -26 01 00.39240
